{
    "links": {
        "self": "http://www.neowsapp.com/rest/v1/neo/3408013?api_key=iIulBulltgU6a56xZRHN4H3l9WmuAYTsLGpBGhQ2"
    },
    "id": "3408013",
    "neo_reference_id": "3408013",
    "name": "(2008 GJ)",
    "designation": "2008 GJ",
    "nasa_jpl_url": "http://ssd.jpl.nasa.gov/sbdb.cgi?sstr=3408013",
    "absolute_magnitude_h": 20.2,
    "estimated_diameter": {
        "kilometers": {
            "estimated_diameter_min": 0.2424124811,
            "estimated_diameter_max": 0.5420507863
        },
        "meters": {
            "estimated_diameter_min": 242.4124811008,
            "estimated_diameter_max": 542.0507863358
        },
        "miles": {
            "estimated_diameter_min": 0.1506280858,
            "estimated_diameter_max": 0.3368146392
        },
        "feet": {
            "estimated_diameter_min": 795.3165644948,
            "estimated_diameter_max": 1778.3819018419
        }
    },
    "is_potentially_hazardous_asteroid": false,
    "close_approach_data": [
        {
            "close_approach_date": "2029-11-02",
            "close_approach_date_full": "2029-Nov-02 21:18",
            "epoch_date_close_approach": 1888348680000,
            "relative_velocity": {
                "kilometers_per_second": "18.757085732",
                "kilometers_per_hour": "67525.5086352594",
                "miles_per_hour": "41957.7250739477"
            },
            "miss_distance": {
                "astronomical": "0.4633544515",
                "lunar": "180.2448816335",
                "kilometers": "69316838.999418305",
                "miles": "43071486.502870409"
            },
            "orbiting_body": "Earth"
        },
        {
            "close_approach_date": "2040-11-03",
            "close_approach_date_full": "2040-Nov-03 00:13",
            "epoch_date_close_approach": 2235514380000,
            "relative_velocity": {
                "kilometers_per_second": "18.5702362907",
                "kilometers_per_hour": "66852.8506465873",
                "miles_per_hour": "41539.7615587087"
            },
            "miss_distance": {
                "astronomical": "0.4551468535",
                "lunar": "177.0521260115",
                "kilometers": "68088999.820802045",
                "miles": "42308542.615456421"
            },
            "orbiting_body": "Earth"
        },
        {
            "close_approach_date": "2051-11-02",
            "close_approach_date_full": "2051-Nov-02 16:54",
            "epoch_date_close_approach": 2582556840000,
            "relative_velocity": {
                "kilometers_per_second": "19.1247253252",
                "kilometers_per_hour": "68849.0111707265",
                "miles_per_hour": "42780.0980799439"
            },
            "miss_distance": {
                "astronomical": "0.4734181028",
                "lunar": "184.1596419892",
                "kilometers": "70822339.798321036",
                "miles": "44006961.3207648568"
            },
            "orbiting_body": "Earth"
        },
        {
            "close_approach_date": "2062-11-02",
            "close_approach_date_full": "2062-Nov-02 22:51",
            "epoch_date_close_approach": 2929733460000,
            "relative_velocity": {
                "kilometers_per_second": "19.0561685387",
                "kilometers_per_hour": "68602.2067393427",
                "miles_per_hour": "42626.7434042321"
            },
            "miss_distance": {
                "astronomical": "0.473328186",
                "lunar": "184.124664354",
                "kilometers": "70808888.43656382",
                "miles": "43998603.032147916"
            },
            "orbiting_body": "Earth"
        },
        {
            "close_approach_date": "2073-11-01",
            "close_approach_date_full": "2073-Nov-01 20:13",
            "epoch_date_close_approach": 3276792780000,
            "relative_velocity": {
                "kilometers_per_second": "19.4716024354",
                "kilometers_per_hour": "70097.7687673705",
                "miles_per_hour": "43556.0274877031"
            },
            "miss_distance": {
                "astronomical": "0.4848047298",
                "lunar": "188.5890398922",
                "kilometers": "72525754.944005526",
                "miles": "45065414.4111712188"
            },
            "orbiting_body": "Earth"
        }
    ],
    "orbital_data": {
        "orbit_id": "16",
        "orbit_determination_date": "2019-04-09 07:28:52",
        "first_observation_date": "2007-11-11",
        "last_observation_date": "2019-04-07",
        "data_arc_in_days": 4165,
        "observations_used": 49,
        "orbit_uncertainty": "0",
        "minimum_orbit_intersection": ".0585331",
        "jupiter_tisserand_invariant": "3.729",
        "epoch_osculation": "2459000.5",
        "eccentricity": ".4706293356336941",
        "semi_major_axis": "1.964457307267213",
        "inclination": "4.838404089955447",
        "ascending_node_longitude": "256.7267549576493",
        "orbital_period": "1005.685802727328",
        "perihelion_distance": "1.039926069867289",
        "perihelion_argument": "192.9590611419952",
        "aphelion_distance": "2.888988544667137",
        "perihelion_time": "2459450.157659740712",
        "mean_anomaly": "199.0384381805318",
        "mean_motion": ".3579646834266855",
        "equinox": "J2000",
        "orbit_class": {
            "orbit_class_type": "AMO",
            "orbit_class_description": "Near-Earth asteroid orbits similar to that of 1221 Amor",
            "orbit_class_range": "1.017 AU < q (perihelion) < 1.3 AU"
        }
    },
    "is_sentry_object": false
}